satname,norad_id,inclination_deg,eccentricity,mean_motion_rev_per_day,perigee_km,apogee_km,l1,l2
STARLINK-1309,45414,53.0576,0.0003646,15.77567137,334.8875413682854,339.7844642819455,1 45414U 20019BG  26201.22980843  .00051184  00000+0  30326-3 0  9992,2 45414  53.0576 192.1805 0003646  59.8538 300.2843 15.77567137350804
STARLINK-1316,45415,53.1521,0.0001666,15.4257031,437.390948228046,439.66226054102754,1 45415U 20019BH  26201.37525164  .00009868  00000+0  23275-3 0  9997,2 45415  53.1521 227.0727 0001666 334.7989  25.2936 15.42570310350392
STARLINK-1286,45417,53.0424,0.0006931,15.68880595,357.4295764874769,366.7728947296773,1 45417U 20019BK  26201.29071953  .00043199  00000+0  37161-3 0  9996,2 45417  53.0424 205.5305 0006931  35.8097 324.3383 15.68880595350911
STARLINK-1308,45419,53.0432,0.0002993,15.69749518,357.59705862813007,361.6302761776378,1 45419U 20019BM  26201.40920417  .00032993  00000+0  27558-3 0  9998,2 45419  53.0432 223.9473 0002993 134.4946 225.6316 15.69749518350419
STARLINK-1329,45531,53.039,0.0003601,15.7922317,330.2238987273395,335.05700064660414,1 45531U 20025A   26201.55352589  .00066687  00000+0  36509-3 0  9998,2 45531  53.0390 144.2871 0003601  49.7594 310.3741 15.79223170346329
STARLINK-1338,45532,53.0405,0.0002822,15.75707801,340.7212084248531,344.51440243703837,1 45532U 20025B   26201.30129322  .00050607  00000+0  32553-3 0  9999,2 45532  53.0405 153.4011 0002822  89.5335 270.6007 15.75707801346174
STARLINK-1350,45535,53.0691,0.0001901,15.40602669,443.0325312060686,445.6264329625574,1 45535U 20025E   26201.49774594  .00028339  00000+0  69305-3 0  9991,2 45535  53.0691 127.7631 0001901  96.2563 263.8658 15.40602669346591
STARLINK-1362,45538,53.1534,0.0005643,15.40878509,439.66578461859353,447.36470134001866,1 45538U 20025H   26201.71969189  .00022686  00000+0  55196-3 0  9997,2 45538  53.1534 198.2948 0005643   8.0765 352.0330 15.40878509345615
STARLINK-1368,45540,53.1548,0.0004469,15.4114678,439.6753368492673,445.7718220351735,1 45540U 20025K   26201.72757685  .00028658  00000+0  68812-3 0  9991,2 45540  53.1548 198.5650 0004469   8.5113 351.5968 15.41146780345603
STARLINK-1371,45542,53.0411,0.0002724,15.72514922,349.87885980892406,353.5452815826393,1 45542U 20025M   26201.30639564  .00041548  00000+0  30773-3 0  9990,2 45542  53.0411 164.1740 0002724  78.2648 281.8675 15.72514922346029
STARLINK-1372,45543,53.1543,0.0004654,15.41580658,438.26986537154244,444.61753108545327,1 45543U 20025N   26201.28480414  .00028647  00000+0  67804-3 0  9996,2 45543  53.1543 200.0194 0004654   0.8086 359.2927 15.41580658344642
STARLINK-1373,45544,53.0408,0.0003155,15.74410264,344.1883045259956,348.431430499395,1 45544U 20025P   26201.89844822  .00053169  00000+0  36147-3 0  9994,2 45544  53.0408 155.7616 0003155  87.1319 273.0061 15.74410264346194
STARLINK-1327,45555,53.0384,0.0002342,15.76407586,339.0551777179626,342.2022475777667,1 45555U 20025AA  26201.10295900  .00052114  00000+0  32495-3 0  9998,2 45555  53.0384 136.7193 0002342 107.3839 252.7436 15.76407586346383
STARLINK-1356,45564,53.0411,0.0004599,15.68714543,359.4768192654892,365.6769278864049,1 45564U 20025AK  26201.27663258  .00035944  00000+0  31263-3 0  9995,2 45564  53.0411 150.7779 0004599  66.0381 294.1116 15.68714543346200
STARLINK-1357,45565,53.0411,0.0001474,15.743832,345.3957356302144,347.37812528491213,1 45565U 20025AL  26201.93741520  .00055285  00000+0  37609-3 0  9998,2 45565  53.0411 102.6825 0001474 255.3097 104.7758 15.74383200346943
STARLINK-1361,45567,53.0395,0.0002424,15.72743105,349.4299594268432,352.69227467399014,1 45567U 20025AN  26201.91502707  .00050432  00000+0  36859-3 0  9995,2 45567  53.0395 145.2532 0002424  96.9710 263.1583 15.72743105346343
STARLINK-1376,45570,53.1546,0.0002836,15.42100576,437.9772028714906,441.84439958434723,1 45570U 20025AR  26201.63886600  .00029701  00000+0  69065-3 0  9995,2 45570  53.1546 174.6153 0002836  24.4336 335.6804 15.42100576345939
STARLINK-1320,45572,53.0326,0.0003948,16.07490927,251.11702690808306,256.3535532683363,1 45572U 20025AT  26201.90924145  .00438073  10354-3  53442-3 0  9999,2 45572  53.0326  34.3386 0003948 260.8881  99.1705 16.07490927347907
STARLINK-1321,45573,53.0405,0.000141,15.7316196,348.9179810722135,350.8152780957562,1 45573U 20025AU  26201.52903548  .00047599  00000+0  34213-3 0  9999,2 45573  53.0405 130.9019 0001410 106.9073 253.2100 15.73161960346205
STARLINK-1331,45578,53.0428,0.0001867,15.72927727,349.27830513630033,351.7907910923659,1 45578U 20025AZ  26201.94013957  .00051046  00000+0  37011-3 0  9997,2 45578  53.0428 135.8594 0001867 100.0385 260.0844 15.72927727346485
STARLINK-1333,45580,53.1541,0.0004484,15.39101592,445.70352036723216,451.8258858145646,1 45580U 20025BB  26201.96594428  .00032525  00000+0  83345-3 0  9991,2 45580  53.1541 175.5166 0004484  23.8154 336.3057 15.39101592345956
STARLINK-1335,45581,53.1525,0.0003639,15.4061823,441.80086299927643,446.76622066962227,1 45581U 20025BC  26201.62470405  .00031500  00000+0  76851-3 0  9999,2 45581  53.1525 173.3276 0003639 356.6720   3.4260 15.40618230345945
STARLINK-1337,45582,53.0401,0.0001603,15.81012426,326.5014418715,328.6512935771916,1 45582U 20025BD  26201.95282715  .00081424  00000+0  40949-3 0  9990,2 45582  53.0401 122.4872 0001603 152.2255 207.8852 15.81012426346653
STARLINK-1347,45586,53.0368,0.0001282,15.73288012,348.6447752215954,350.3697432096578,1 45586U 20025BH  26201.93901321  .00055512  00000+0  39577-3 0  9997,2 45586  53.0368  95.1716 0001282  99.5248 260.5915 15.73288012347036
STARLINK-1364,45589,53.0392,0.0004204,15.73958403,344.7693026176612,350.42429959763285,1 45589U 20025BL  26201.54459699  .00048617  00000+0  33750-3 0  9998,2 45589  53.0392 133.6105 0004204  74.1197 286.0285 15.73958403346462
STARLINK-1365,45590,53.0435,0.0002951,15.68920113,359.99904203474125,363.97706384098547,1 45590U 20025BM  26201.32477340  .00073244  00000+0  62392-3 0  9997,2 45590  53.0435 170.7807 0002951  51.2941 308.8339 15.68920113345949
STARLINK-1443,45660,53.1327,0.0002704,15.3561488,457.2459541492817,460.9435290751453,1 45660U 20035D   26201.20109036  .00027000  00000+0  77678-3 0  9999,2 45660  53.1327 168.6398 0002704  64.8303 295.2980 15.35614880339058
STARLINK-1446,45663,53.0204,0.0002471,15.50041792,414.9249534474484,418.2829144169964,1 45663U 20035G   26201.89053588  .00021528  00000+0  38403-3 0  9999,2 45663  53.0204  83.3510 0002471  41.4210 318.6984 15.50041792340286
STARLINK-1448,45665,53.0392,0.0001806,15.78225306,334.25635519025127,336.6813096169153,1 45665U 20035J   26201.95363764  .00076744  00000+0  43844-3 0  9993,2 45665  53.0392 118.2092 0001806 137.7820 222.3339 15.78225306339790
STARLINK-1451,45668,53.0516,0.0002904,15.15984685,515.9881233542992,519.993394356642,1 45668U 20035M   26201.37359378  .00015633  00000+0  81873-3 0  9992,2 45668  53.0516 184.1184 0002904  24.2418 335.8711 15.15984685338839
STARLINK-1452,45669,53.021,0.0006643,15.65303077,367.8828950678553,376.8516150211062,1 45669U 20035N   26201.89447257  .00035836  00000+0  35746-3 0  9999,2 45669  53.0210  97.1355 0006643  93.1512 267.0263 15.65303077340092
STARLINK-1453,45670,53.0354,0.0002221,15.7924435,331.0899982471956,334.0708989378609,1 45670U 20035P   26201.90509055  .00089071  00000+0  48476-3 0  9992,2 45670  53.0354  78.5290 0002221 215.2579 144.8295 15.79244350340249
STARLINK-1454,45671,53.0415,0.0001444,15.76595769,339.12395335906876,341.0641784909085,1 45671U 20035Q   26201.93854864  .00070541  00000+0  43390-3 0  9999,2 45671  53.0415 120.0188 0001444 123.2181 236.8977 15.76595769339764
STARLINK-1456,45673,53.0388,0.0001255,15.72655282,350.46709144317447,352.15618305112275,1 45673U 20035S   26201.91827943  .00052263  00000+0  38319-3 0  9993,2 45673  53.0388 115.5664 0001255 116.6813 243.4334 15.72655282339844
STARLINK-1458,45675,53.0416,0.0001784,15.68960432,360.6701633274224,363.0749987459367,1 45675U 20035U   26202.00002315 -.00025407  00000+0 -21196-3 0  9991,2 45675  53.0416 132.4190 0001784  91.6653  19.3455 15.68960432  5969
STARLINK-1460,45676,53.1556,0.0004542,15.38790027,446.58498818574844,452.7873827674357,1 45676U 20035V   26201.29780837  .00030476  00000+0  78977-3 0  9993,2 45676  53.1556 165.9130 0004542  42.8146 317.3212 15.38790027339062
STARLINK-1392,45677,53.1515,0.0005368,15.42328077,435.5807528077612,442.89988909953627,1 45677U 20035W   26201.22114355  .00034094  00000+0  78474-3 0  9995,2 45677  53.1515 163.8525 0005368  37.0374 323.1001 15.42328077339124
STARLINK-1394,45679,53.0376,0.0001143,15.71042005,355.14805288015305,356.68745779722303,1 45679U 20035Y   26201.88700040  .00042427  00000+0  33421-3 0  9993,2 45679  53.0376 106.3342 0001143 134.6146 225.4965 15.71042005339968
STARLINK-1402,45685,53.0401,9.01e-05,15.68079499,363.7891604149445,365.00416498096274,1 45685U 20035AE  26201.92024128  .00038224  00000+0  34090-3 0  9994,2 45685  53.0401  98.7617 0000901 143.8046 216.3031 15.68079499340086
STARLINK-1404,45686,53.1548,0.0004651,15.48464455,418.0550612366469,424.379820737654,1 45686U 20035AF  26201.56263950  .00039256  00000+0  73140-3 0  9998,2 45686  53.1548 142.0142 0004651  30.6325 329.4955 15.48464455339464
STARLINK-1413,45689,53.1551,0.0004836,15.38473544,447.3201436103591,453.9249198294383,1 45689U 20035AJ  26201.27607716  .00030621  00000+0  80164-3 0  9992,2 45689  53.1551 150.7080 0004836  42.4625 317.6752 15.38473544339234
STARLINK-1417,45693,53.0499,0.0003025,15.18639937,507.8664542554852,512.0337469513515,1 45693U 20035AN  26201.92581599  .00015053  00000+0  73162-3 0  9991,2 45693  53.0499 167.4660 0003025 341.2297  18.8586 15.18639937339101
STARLINK-1420,45695,53.0419,0.0001154,15.75550797,342.2886545648198,343.83990782051933,1 45695U 20035AQ  26201.92582641  .00060845  00000+0  39282-3 0  9996,2 45695  53.0419  88.1642 0001154 196.1917 163.9066 15.75550797340220
